[{"OBJECT_NAME":"STARLINK-1738","OBJECT_ID":"2020-062M","EPOCH":"2026-03-05T13:38:39.126624","MEAN_MOTION":16.02875952,"ECCENTRICITY":0.00052098,"INCLINATION":53.0262,"RA_OF_ASC_NODE":301.6789,"ARG_OF_PERICENTER":164.243,"MEAN_ANOMALY":195.8764,"EPHEMERIS_TYPE":0,"CLASSIFICATION_TYPE":"U","NORAD_CAT_ID":46336,"ELEMENT_SET_NO":999,"REV_AT_EPOCH":30499,"BSTAR":0.001234673,"MEAN_MOTION_DOT":0.00763074,"MEAN_MOTION_DDOT":0.0002916321},{"OBJECT_NAME":"STARLINK-1687","OBJECT_ID":"2020-070K","EPOCH":"2026-03-05T14:00:51.176160","MEAN_MOTION":16.34024681,"ECCENTRICITY":0.0002152,"INCLINATION":53.0221,"RA_OF_ASC_NODE":111.2792,"ARG_OF_PERICENTER":340.9442,"MEAN_ANOMALY":19.1521,"EPHEMERIS_TYPE":0,"CLASSIFICATION_TYPE":"U","NORAD_CAT_ID":46541,"ELEMENT_SET_NO":999,"REV_AT_EPOCH":30005,"BSTAR":0.00097563825,"MEAN_MOTION_DOT":0.06805165,"MEAN_MOTION_DDOT":1.2231301e-5},{"OBJECT_NAME":"STARLINK-1712","OBJECT_ID":"2020-070BB","EPOCH":"2026-03-05T16:00:00.999936","MEAN_MOTION":15.9754544,"ECCENTRICITY":0.00066822,"INCLINATION":53.0284,"RA_OF_ASC_NODE":101.0894,"ARG_OF_PERICENTER":350.9547,"MEAN_ANOMALY":353.1557,"EPHEMERIS_TYPE":0,"CLASSIFICATION_TYPE":"U","NORAD_CAT_ID":46581,"ELEMENT_SET_NO":999,"REV_AT_EPOCH":600,"BSTAR":0.001179754,"MEAN_MOTION_DOT":0.00537476,"MEAN_MOTION_DDOT":0.0001331528},{"OBJECT_NAME":"STARLINK-1955","OBJECT_ID":"2021-009J","EPOCH":"2026-03-05T16:00:00.999936","MEAN_MOTION":15.94065801,"ECCENTRICITY":0.00033586,"INCLINATION":53.0354,"RA_OF_ASC_NODE":345.719,"ARG_OF_PERICENTER":148.8646,"MEAN_ANOMALY":2.54,"EPHEMERIS_TYPE":0,"CLASSIFICATION_TYPE":"U","NORAD_CAT_ID":47556,"ELEMENT_SET_NO":999,"REV_AT_EPOCH":601,"BSTAR":0.0012815429,"MEAN_MOTION_DOT":0.00482153,"MEAN_MOTION_DDOT":0.0001037363},{"OBJECT_NAME":"WILDTRACKCUBE-SIMBA","OBJECT_ID":"2021-022K","EPOCH":"2026-03-05T14:51:46.037376","MEAN_MOTION":16.29627534,"ECCENTRICITY":0.00048575,"INCLINATION":97.3762,"RA_OF_ASC_NODE":346.6993,"ARG_OF_PERICENTER":159.6697,"MEAN_ANOMALY":200.4792,"EPHEMERIS_TYPE":0,"CLASSIFICATION_TYPE":"U","NORAD_CAT_ID":47941,"ELEMENT_SET_NO":999,"REV_AT_EPOCH":27519,"BSTAR":0.0011015796,"MEAN_MOTION_DOT":0.04625074,"MEAN_MOTION_DDOT":2.51467e-6},{"OBJECT_NAME":"JILIN-1 GAOFEN 3D02","OBJECT_ID":"2021-061C","EPOCH":"2026-03-05T15:23:01.364064","MEAN_MOTION":16.18748638,"ECCENTRICITY":0.00058454,"INCLINATION":97.2887,"RA_OF_ASC_NODE":145.3699,"ARG_OF_PERICENTER":258.8998,"MEAN_ANOMALY":101.1633,"EPHEMERIS_TYPE":0,"CLASSIFICATION_TYPE":"U","NORAD_CAT_ID":49005,"ELEMENT_SET_NO":999,"REV_AT_EPOCH":26016,"BSTAR":0.0011341684,"MEAN_MOTION_DOT":0.01940934,"MEAN_MOTION_DDOT":2.361076e-6},{"OBJECT_NAME":"STARLINK-3269","OBJECT_ID":"2021-125AQ","EPOCH":"2026-03-05T13:12:44.009568","MEAN_MOTION":16.34616287,"ECCENTRICITY":0.00070165,"INCLINATION":53.189,"RA_OF_ASC_NODE":151.2667,"ARG_OF_PERICENTER":331.3625,"MEAN_ANOMALY":28.7035,"EPHEMERIS_TYPE":0,"CLASSIFICATION_TYPE":"U","NORAD_CAT_ID":50194,"ELEMENT_SET_NO":999,"REV_AT_EPOCH":23766,"BSTAR":0.0010636021,"MEAN_MOTION_DOT":0.07964547,"MEAN_MOTION_DDOT":1.2291072e-5},{"OBJECT_NAME":"LYNK TOWER 1","OBJECT_ID":"2022-033F","EPOCH":"2026-03-05T05:06:32.125248","MEAN_MOTION":16.11609324,"ECCENTRICITY":0.00055376,"INCLINATION":97.2535,"RA_OF_ASC_NODE":169.5237,"ARG_OF_PERICENTER":205.3975,"MEAN_ANOMALY":154.7038,"EPHEMERIS_TYPE":0,"CLASSIFICATION_TYPE":"U","NORAD_CAT_ID":52162,"ELEMENT_SET_NO":999,"REV_AT_EPOCH":22052,"BSTAR":0.00076195101,"MEAN_MOTION_DOT":0.00782842,"MEAN_MOTION_DDOT":0.00035169496},{"OBJECT_NAME":"NUSAT-28 (ALICE LEE)","OBJECT_ID":"2022-057R","EPOCH":"2026-03-05T15:26:53.680704","MEAN_MOTION":15.97953566,"ECCENTRICITY":0.00074221,"INCLINATION":97.5003,"RA_OF_ASC_NODE":214.0951,"ARG_OF_PERICENTER":287.085,"MEAN_ANOMALY":72.9614,"EPHEMERIS_TYPE":0,"CLASSIFICATION_TYPE":"U","NORAD_CAT_ID":52747,"ELEMENT_SET_NO":999,"REV_AT_EPOCH":21140,"BSTAR":0.0011378534,"MEAN_MOTION_DOT":0.00514498,"MEAN_MOTION_DDOT":0.00011426043},{"OBJECT_NAME":"STARLINK-6201","OBJECT_ID":"2023-064AQ","EPOCH":"2026-03-05T14:00:01.999872","MEAN_MOTION":15.99091203,"ECCENTRICITY":0.00044494,"INCLINATION":69.9952,"RA_OF_ASC_NODE":125.2507,"ARG_OF_PERICENTER":287.1244,"MEAN_ANOMALY":315.0207,"EPHEMERIS_TYPE":0,"CLASSIFICATION_TYPE":"U","NORAD_CAT_ID":56486,"ELEMENT_SET_NO":999,"REV_AT_EPOCH":576,"BSTAR":0.0025979895,"MEAN_MOTION_DOT":0.01250291,"MEAN_MOTION_DDOT":0.0008147069},{"OBJECT_NAME":"SHIYAN-25 (SY-25)","OBJECT_ID":"2023-087A","EPOCH":"2026-03-05T14:12:09.410112","MEAN_MOTION":16.00991417,"ECCENTRICITY":0.00117711,"INCLINATION":96.718,"RA_OF_ASC_NODE":125.6822,"ARG_OF_PERICENTER":244.5674,"MEAN_ANOMALY":115.4389,"EPHEMERIS_TYPE":0,"CLASSIFICATION_TYPE":"U","NORAD_CAT_ID":57047,"ELEMENT_SET_NO":999,"REV_AT_EPOCH":15823,"BSTAR":-0.00019785565,"MEAN_MOTION_DOT":-0.00107582,"MEAN_MOTION_DDOT":6.342049e-6},{"OBJECT_NAME":"STARLINK-6151","OBJECT_ID":"2023-090T","EPOCH":"2026-03-05T14:17:44.539296","MEAN_MOTION":16.22855025,"ECCENTRICITY":0.00140113,"INCLINATION":42.9682,"RA_OF_ASC_NODE":173.3177,"ARG_OF_PERICENTER":354.8863,"MEAN_ANOMALY":5.1879,"EPHEMERIS_TYPE":0,"CLASSIFICATION_TYPE":"U","NORAD_CAT_ID":57118,"ELEMENT_SET_NO":999,"REV_AT_EPOCH":15122,"BSTAR":0.00095139816,"MEAN_MOTION_DOT":0.02478375,"MEAN_MOTION_DDOT":8.985038e-6},{"OBJECT_NAME":"STARLINK-30210","OBJECT_ID":"2023-096C","EPOCH":"2026-03-05T14:00:29.956320","MEAN_MOTION":16.06491014,"ECCENTRICITY":0.00234076,"INCLINATION":42.9643,"RA_OF_ASC_NODE":161.2335,"ARG_OF_PERICENTER":13.8211,"MEAN_ANOMALY":346.3306,"EPHEMERIS_TYPE":0,"CLASSIFICATION_TYPE":"U","NORAD_CAT_ID":57292,"ELEMENT_SET_NO":999,"REV_AT_EPOCH":14785,"BSTAR":0.0013795335,"MEAN_MOTION_DOT":0.01115541,"MEAN_MOTION_DDOT":0.00070346165},{"OBJECT_NAME":"STARLINK-30232","OBJECT_ID":"2023-096P","EPOCH":"2026-03-05T13:05:10.256640","MEAN_MOTION":16.0692013,"ECCENTRICITY":0.00229689,"INCLINATION":42.9698,"RA_OF_ASC_NODE":161.0507,"ARG_OF_PERICENTER":15.0763,"MEAN_ANOMALY":345.0798,"EPHEMERIS_TYPE":0,"CLASSIFICATION_TYPE":"U","NORAD_CAT_ID":57303,"ELEMENT_SET_NO":999,"REV_AT_EPOCH":14783,"BSTAR":0.0011923845,"MEAN_MOTION_DOT":0.00991953,"MEAN_MOTION_DDOT":0.00054246671},{"OBJECT_NAME":"QIANKUN-1","OBJECT_ID":"2023-103B","EPOCH":"2026-03-05T12:49:33.235680","MEAN_MOTION":16.08514637,"ECCENTRICITY":0.00307833,"INCLINATION":96.1968,"RA_OF_ASC_NODE":116.327,"ARG_OF_PERICENTER":170.3202,"MEAN_ANOMALY":189.8684,"EPHEMERIS_TYPE":0,"CLASSIFICATION_TYPE":"U","NORAD_CAT_ID":57422,"ELEMENT_SET_NO":999,"REV_AT_EPOCH":15064,"BSTAR":5.66302e-7,"MEAN_MOTION_DOT":-2.1e-7,"MEAN_MOTION_DDOT":1.685485e-6}]
