STARLINK-1738           
1 46336U 20062M   26064.56850841  .00763074  29163-3  12347-2 0  9997
2 46336  53.0262 301.6789 0005209 164.2430 195.8764 16.02875952304992
STARLINK-1687           
1 46541U 20070K   26064.58392565  .06805165  12231-4  97564-3 0  9998
2 46541  53.0221 111.2792 0002152 340.9442  19.1521 16.34024681300056
STARLINK-1712           
1 46581U 20070BB  26064.66667824  .00537476  13315-3  11798-2 0  9992
2 46581  53.0284 101.0894 0006682 350.9547 353.1557 15.97545440  6005
STARLINK-1955           
1 47556U 21009J   26064.66667824  .00482153  10374-3  12815-2 0  9992
2 47556  53.0354 345.7190 0003358 148.8646   2.5400 15.94065801  6011
WILDTRACKCUBE-SIMBA     
1 47941U 21022K   26064.61928284  .04625074  25147-5  11016-2 0  9993
2 47941  97.3762 346.6993 0004857 159.6697 200.4792 16.29627534275191
JILIN-1 GAOFEN 3D02     
1 49005U 21061C   26064.64098801  .01940934  23611-5  11342-2 0  9993
2 49005  97.2887 145.3699 0005845 258.8998 101.1633 16.18748638260161
STARLINK-3269           
1 50194U 21125AQ  26064.55050937  .07964547  12291-4  10636-2 0  9991
2 50194  53.1890 151.2667 0007016 331.3625  28.7035 16.34616287237665
LYNK TOWER 1            
1 52162U 22033F   26064.21287182  .00782842  35169-3  76195-3 0  9994
2 52162  97.2535 169.5237 0005537 205.3975 154.7038 16.11609324220525
NUSAT-28 (ALICE LEE)    
1 52747U 22057R   26064.64367686  .00514498  11426-3  11379-2 0  9996
2 52747  97.5003 214.0951 0007422 287.0850  72.9614 15.97953566211401
STARLINK-6201           
1 56486U 23064AQ  26064.58335648  .01250291  81471-3  25980-2 0  9994
2 56486  69.9952 125.2507 0004449 287.1244 315.0207 15.99091203  5767
SHIYAN-25 (SY-25)       
1 57047U 23087A   26064.59177558 -.00107582  63420-5 -19786-3 0  9997
2 57047  96.7180 125.6822 0011771 244.5674 115.4389 16.00991417158239
STARLINK-6151           
1 57118U 23090T   26064.59565439  .02478375  89850-5  95140-3 0  9993
2 57118  42.9682 173.3177 0014011 354.8863   5.1879 16.22855025151225
STARLINK-30210          
1 57292U 23096C   26064.58368005  .01115541  70346-3  13795-2 0  9996
2 57292  42.9643 161.2335 0023407  13.8211 346.3306 16.06491014147850
STARLINK-30232          
1 57303U 23096P   26064.54525760  .00991953  54247-3  11924-2 0  9990
2 57303  42.9698 161.0507 0022968  15.0763 345.0798 16.06920130147834
QIANKUN-1               
1 57422U 23103B   26064.53441245 -.00000021  16855-5  56630-6 0  9995
2 57422  96.1968 116.3270 0030783 170.3202 189.8684 16.08514637150648
